Location,Address,City,Country,Long,Lat,Description,Photo,Type,LocationURL,Source
Strand Bookstore,"828 Broadway, New York, NY 10003","New York, NY",US,40.73332,-73.99096,"This over-80-year-old establishment houses thousands of discounted new and used titles, rare books, and hard-to-find art and photography books. A total classic.",https://s26895.pcdn.co/wp-content/uploads/the-strand-10.jpg,Bookstore,https://www.strandbooks.com,Experience
McNally Jackson Independent Booksellers,"52 Prince St, New York, NY 10012","New York, NY",US,40.72337,-73.99827,"The best literary hot spot boasts a warm atmosphere, well-curated selection and convivial café. It also has the city’s first Espresso Book Machine, which prints a growing number of texts on demand.",https://www.mcnallyjackson.com/sites/mcnallyjackson.com/files/STORE_0.jpg,Bookstore,https://www.mcnallyjackson.com/,Experience
"Housing Works Bookstore Cafe, Crosby Street, New York, NY","126 Crosby St, New York, NY 10012","New York, NY",US,40.72457,-73.99868,"Smell of old books, the balcony, people writing books and plays, a very diverse selection, a bustling café, a good cause—New York, this is your bookstore.",https://igx.4sqi.net/img/general/600x600/184215_Qv1NycrdgqpAqz6uZ1OT56dapNPvct48knFRj4-cnF0.jpg,Bookstore,https://www.housingworks.org/locations/bookstore-café,Experience
Theodore M. Hesburgh Library,"221 Hesburgh Library, Notre Dame, IN 46556","Notre Dame, IN",US,41.7023579,-86.2363832,"Size: 3,000,000+ books, 3,000,000+ microform units, 34,000+ electronic titles, 28,850+ audiovisual items",https://amp.businessinsider.com/images/579bb64add0895ce188b49bc-750-314.jpg,Library,https://library.nd.edu/,Business Insider
The Wilmington Public Library,"10 E 10th St, Wilmington, DE 19801","Wilmington, DE",US,39.745197,-75.5496617,"The Wilmington Public Library was founded in the late 18th century. The building has been renovated several times since, though the facade retains its regal aesthetic.",https://amp.businessinsider.com/images/579bb64add0895ce188b49b6-1334-522.jpg,Library,https://wilmington.lib.de.us/,Business Insider
Vermont Book Shop,38 Main St,"Middlebury, VT",US,44.01398,-73.16856,"The owners here say Vermont Book Shop was a favorite of poet Robert Frost—yes, four-time Pulitzer Prize winner, Robert Frost—and though they’ve been loath to change, the shop has undergone some changes since his day. From the outside, the brick store front with its striped awning looks like a Hallmark card classic. Inside, though—and especially on the shop’s online store—the owners have made nods to modernity, keeping close tabs on national trends, offering audiobooks, and giving discounts for large online purchases. Look at the weekly schedule for talks with authors and other events.",,Bookstore,,Culture Trip
Crow Bookshop,14 Church St,"Burlington, VT",US,44.48009,-73.2126,"Classic, classy, warm and inviting—Crow Bookshop is the kind of store you just want to walk in, even if you’ve no intention of buying a book (though we can’t image such a scenario). This downtown Burlington store has old world charm even though it’s only been open since 1995. Inside, the shelves are lined with new and used books (the owner occasionally trades for used books) you can read in over-sized leather couches or—as sometimes seen—crouched upon the floor. Not interested in reading but cognizant that the bookish vibe is totally in? There’s pint glasses and tote bags emblazoned with crows.",,Bookstore,,Culture Trip
Speaking Volumes Books,"377 Pine St., Burlington, VT, USA","Burlington, VT",US,44.46876,-73.21634,"The pre-internet days of analog reign at this central Burlington used bookstore, where customers appear to be as interested in American bed & breakfast cookbooks as stereo repairs. That at least is the conceit behind Speaking Volumes Books, a used book shop with titles on as many topics as one could want, vinyl and art for sale, as well as the occasional live band performance. If the predictability of books at your average independent bookstore doesn’t excite you, consider the hunt for old titles, crumbling encyclopedias, and treatises on everything from folk medicine to bears.",,Bookstore,,Culture Trip
Phoenix Books,"191 Bank St., Burlington, VT, USA","Burlington, VT",US,44.47807,-73.21178,"Success—or at least multiple stores—need not be the arbiter of independence, as this regional bookstore shows. Phoenix, with multiple locations around Vermont, boasts the combination of new titles and community involvement (everything from tarot readings to literacy drives) expected from a local purveyor of the written word. With staff recommendations, e-books, works from local authors, and a periodic discussions with writers, Phoenix is well worth a stop.",,Bookstore,,Culture Trip
Northshire Bookstore,"4869 Main St., Manchester Center, VT, USA, ","Manchester, VT",US,43.17683,-73.05728,"Northshire Bookstore, 4869 Main St., Manchester Center, VT, USA",,Bookstore,,Culture Trip
Arcadian Books and Prints,"714 Orleans Avenue, New Orleans, LA, USA, ","New Orleans, LA",US,29.95853,-90.067,"Arcadian Books and Prints is known for its large collection of French language publications and its stacks of books which nearly reach the ceiling. In addition to French, Arcadian also has extensive offerings in a number of foreign languages including Spanish, German, Latin, and Russian. Despite the seemingly scattered array of books, the shopkeeper is extremely helpful and is able to find anything one may need. Upon walking in, guests will be sure to notice that wonderful ‘bookstore smell’.",,Bookstore,,Experience
Beckham’s Bookshop,"228 Decatur Street, New Orleans, LA, USA, ","New Orleans, LA",US,29.95329,-90.06795,"Beckham’s Bookshop is located in the French Quarter and has been open since 1967. The two-story shop houses 50 to 60 thousand used books. In addition to their large number of topics, ranging from philosophy and law to theatre and humor, Beckham’s also carries new publications about Louisiana, New Orleans and the American South. The locally-themed books focus primarily on topics such as music, literature, cooking, history, and architecture. In addition to their extensive collection of literature, Beckham’s also offers used classical LPs and CDs.",,Bookstore,,Experience
Faulkner House Books,"624 Pirate’s Alley, New Orleans, LA, USA","New Orleans, LA",US,29.95814,-90.06426,"William Faulkner came to live in the New Orleans French Quarter in 1924, long before he wrote As I Lay Dying or The Sound and the Fury. He lived in a yellow four-story building on Pirate Alley next to St. Louis Cathedral in the French Quarter with the artist William Spratling. Today, this building is known as Faulkner House and the ground floor is home to Faulkner House Books. Faulkner House Books specializes in rare editions, fine literature and, of course, the works of William Faulkner.",,Bookstore,,Experience
Octavia Books,"513 Octavia Street, New Orleans, LA, USA, ","New Orleans, LA",US,29.9188,-90.11879,"Located on Octavia Street in Uptown New Orleans, Octavia Books is tucked away in a neighborhood just off of the bustling Magazine Street shopping area. The shop has a sleek, modern feel, making choosing a book efficient and easy. Octavia Books hosts frequent book-signings and talks, making it an ideal location to meet regional and national authors face to face. The staff are extremely helpful and extensive browsing is encouraged.",,Bookstore,,Experience
Blue Cypress Books.,"Blue Cypress Books 8126 Oak St New Orleans, LA 70118","New Orleans, LA",US,29.94762,-90.13055,"Nestled in the picturesque Riverbend neighborhood, Blue Cypress Books is the perfect place for readers to escape into another world. It’s surrounded by neighborhood coffee shops and local restaurants that bring its quaintness to a whole new level.",,Bookstore,,Experience
Community Book Center,"2523 Bayou Rd, New Orleans, LA 70119","New Orleans, LA",US,29.97647,-90.07636,Coming to this New Orleans bookstore feels like coming home to your family. This cozy neighborhood gem specializes in African-American literature and is located near the Tremé area of New Orleans,,Bookstore,,Culture Trip
Crescent City Books,"124 Baronne Street, New Orleans, LA< US","New Orleans, LA",US,29.95375,-90.07139,"An old-school French Quarter bookstore, Crescent City Books sells used books by the stacks. If there’s an out-of-print book that you couldn’t find anywhere else in New Orleans, you have your best chances here. You will probably find Crescent City to be one of the most interesting places that you’ll visit in the city.",,Bookstore,,Culture Trip
The Morgan Library & Museum,"225 Madison Ave, New York, NY 10016","New York, NY",US,40.74923,-73.98359,"A beautiful, magical space that transports you far away from the bustle and noise of the world outside. And even more unreal, the guards all greet you cheerfully as you enter each room and exhibition.",https://fastly.4sqi.net/img/general/1116x400/1413072_LBSSLdnWf4dbsVctzeEeuYANrFToD8Ir-S7DQHbqq5U.jpg,Library,https://www.themorgan.org/,Experience
The Los Angeles Public Library,"630 W 5th St, Los Angeles, CA 90071","Los Angeles, CA ",US,34.0348263,-118.2673324,"As the largest public library in the west, the Los Angeles Central Library has been captivating book and architecture lovers since its construction in 1926. The building’s architect—Bertram Goodhue—drew upon design elements from ancient Egypt to create a geometric facade that is an early example of Art Deco.

The library’s most recognizable feature is the tiled pyramid at the top that has a golden hand holding a torch. A 1993 addition added 330,000 square feet of space—called the Tom Bradley wing—and helped to restore the original Goodhue building as well.",https://www.discoverlosangeles.com/sites/default/files/styles/article_section/public/media/Culture/central-library-rotunda-zodiac-chandelier.jpg,Library,https://www.lapl.org/about-lapl/press/central-facts,Curbed
House Poem,"408 Sampsonia Way, Pittsburgh, PA 15212","Pittsburgh, PA",US,40.45699,-80.01174,"House Poem was created by Huang Xiang, the first exiled writer in the City of Asylum/Pittsburgh residency program. Mr. Huang lived in the house for almost three years, and the house is now used by other writers in City of Asylum/Pittsburgh programs.",,Literary Landmark,http://cityofasylum.org/portfolio/house-poem/,bookriot
White Whale Bookstore ,"4754 Liberty Ave, Pittsburgh, PA 15224","Pittsburgh, PA",US,40.46107,-79.95039,"""We are an independent bookstore in Pittsburgh. Our selection of new and used books includes a broad range of contemporary and literary fiction, poetry, history, philosophy, local authors, independent presses, and much more. If we don’t have a book in stock, we are happy to order it for you.",,Bookstore,http://whitewhalebookstore.com/,bookriot
Caliban Book Shop,"410 S Craig St, Pittsburgh, PA 15213","Pittsburgh, PA",US,40.4449,-79.95108,"""‘Greed Came Over Me’: $8 Million in Rarities Stolen From Pittsburgh Library"" https://www.nytimes.com/2018/07/21/us/rare-books-stolen-pittsburgh.html",,Bookstore,ttps://www.calibanbooks.com/,Experience
The George Peabody Library,"17 E Mt Vernon Pl, Baltimore, MD 21202","Baltimore, MD",US,39.2972,-76.61721,,,Library,https://peabodyevents.library.jhu.edu/,Experience
The Big Idea Cooperative Bookstore & Café,"4812 Liberty Ave, Pittsburgh, PA 15224","Pittsburgh, PA",US,40.46024,-79.94885,"""antiprofit bookstore and cafe since 2001""",,Bookstore,http://thebigideapgh.org/,Google
The Booksmith,"1644 Haight St, San Francisco, CA 94117","San Francisco, CA",US,37.7698,-122.4516,"""an adorable bookstore that still stands. Oh my god I passed this store while drunk-wandering through Haight-Ashbury and was beguiled by their dollhouses and the fact that every book I’ve been wanting to read was in the window display""",https://sanfranciscobookreview.com/wp-content/uploads/The-Booksmith-1080x675.jpg,Bookstore,https://www.booksmith.com/,bookriot
City Lights Booksellers & Publishers,"4519, 261 Columbus Ave, San Francisco, CA 94133","San Francisco, CA",US,37.79761,-122.40875,"City Lights Bookstore is both one of San Francisco’s most iconic bookstores and the symbol of a famous literary movement hailing from the city. Referencing the bookstore’s historic role in promoting the Beat movement and Allen Ginsberg’s famous poem, bumper stickers can be seen throughout the city proclaiming ‘HOWL if you love City Lights.’ ",http://mediad.publicbroadcasting.net/p/kalw/files/styles/medium/public/201306/City_Lights.jpg,Bookstore,http://www.citylights.com/,bookriot
Dog Eared Books,"900 Valencia St, San Francisco, CA, USA","San Francisco, CA",US,37.75837,-122.42366,"""With creaky wooden floors, a carefully curated selection of new and used books and a loyal clientele of community readers, Dog Eared Books epitomizes the best, most inimitable characteristics of an independent bookstore. In addition to their general interest stock, the store excels in local literature and small press, as well as Beat and off-beat genres.""",http://seeninsanfrancisco.com/wp-content/uploads/2016/08/dog-eared-books-valencia-street.jpg,Bookstore,http://www.dogearedbooks.com/,Culture Trip
Borderlands Books,"866 Valencia St, San Francisco, CA 94110","San Francisco, CA",US,37.75905,-122.42373,"""What goes best with books? Well coffee, tea, and pastries of course! Borderlands Books is a modestly sized bookstore specializing in genre fiction with vast selection of books in mystery, horror, fantasy, and science fiction. Borderlands Café, which is connected to the bookstore, offers patrons of the bookstore a wonderfully well-lit space to read their newly purchased novel and sip on some hot tea or coffee. Come in to enjoy the classy décor and great selection of books.""",https://media2.fdncms.com/sfexaminer/imager/borderlands-books-in-san-franciscos-missi/u/original/2918741/bh4q3387.jpg,Bookstore,https://borderlands-books.com/,Culture Trip
Green Apple Books,"506 Clement St, San Francisco, CA
506 Clement St, San Francisco, CA
506 Clement St, San Francisco, CA","San Francisco, CA",US,37.78305,-122.4669,"""More than 60,000 new & 100,000 used books fill the shelves at this beloved bookstore.""",https://www.abebooks.com/blog/wp-content/uploads/2015/10/IMG_0769-1024x647.jpg,Bookstore,https://www.greenapplebooks.com/,Culture Trip
Alexander Book Company,"50 2nd St, San Francisco, CA 94105","San Francisco, CA",US,37.78858,-122.40292,"""Independent Downtown bookstore selling 3 floors' worth of titles plus a kids' section.",https://s3-media2.fl.yelpcdn.com/bphoto/HpTI9rD1XlMsesZkCW62IQ/ls.jpg,Bookstore,https://www.alexanderbook.com/,Culture Trip
Books Inc.,"3515 California St, San Francisco, CA 94118","San Francisco, CA",US,37.78646,-122.454,"""Veteran bookseller providing fiction & nonfiction, plus kids' titles. Some locations host events.""",https://s.hdnux.com/photos/44/51/55/9608047/11/rawImage.jpg,Bookstore,https://www.booksinc.net/SFLaurel,Culture Trip
COMMUNITY THRIFT,"623 Valencia St, San Francisco, CA, USA","San Francisco, CA",US,37.7628,-122.42365,"They have multiple different types of books, including some on music and feminism, but the bulk of what they have to offer is their extensive fiction collection. The books are almost all under two dollars, so your book buying binge won’t hurt your wallet. If that wasn’t enough, most of the profits they make go towards local charities.",https://cdn.theculturetrip.com/wp-content/uploads/2016/03/photo_4_best-book-stores-in-the-mission.jpg,Bookstore,http://www.communitythriftsf.org/,Culture Trip
Aardvark,"227 Church St, San Francisco, CA","San Francisco, CA",US,37.76706,-122.43077,"Spacious emporium selling new & secondhand books, cards & newspapers in a laid-back environment.",https://hoodwork-production.s3.amazonaws.com/uploads/story/image/45137/bookstore2.jpg,Bookstore,http://www.aardvarkbookssf.com/,Culture Trip
Vesuvio Café,"255 Columbus Ave, San Francisco, CA, USA","San Francisco, CA",US,37.79749,-122.40864,"""This saloon, located directly across the street from City Lights Bookstore, was a favorite meeting spot for members of the Beat Generation.""",https://img.theculturetrip.com/768x//wp-content/uploads/2016/01/Photo-3-Book-Lovers-Guide-to-San-Francisco.jpg,Literary Landmark,http://www.vesuvio.com/,Culture Trip
Kayo Books,"814 Post St, San Francisco, CA","San Francisco, CA",US,37.78753,-122.41752,"""is it a paperback book in your pocket or you are just happy to see me""",http://1ryzas42x65e2oosia40bgli.wpengine.netdna-cdn.com/wp-content/uploads/2016/08/art1-3.jpg,Bookstore,http://www.kayobooks.com/,Culture Trip
Secret Headquarters,"3817 Sunset Blvd, Los Angeles, CA 90026","Los Angeles, CA",US,34.09136,-118.28132,"""3817 Sunset Blvd, Los Angeles, CA 90026""",https://s3-media2.fl.yelpcdn.com/bphoto/5ci-brpltdmSL0MUHJ-_kA/ls.jpg,Bookstore,https://www.thesecretheadquarters.com,Culture Trip
The Last Bookstore,"453 S Spring St, Los Angeles, CA 90013","Los Angeles, CA",US,34.04775,-118.25167,Airy book & record store offering new & used items in a multilevel space adorned with local art.,http://www.lol-la.com/wp-content/uploads/2014/06/TLBS-620x400.jpg,Bookstore,http://lastbookstorela.com/,Experience
Alley Cat Bookstore and Gallery,"3036 24th St, San Francisco, CA, USA",,US,37.752764,-122.4148957,"""The large white walls are clad with plenty of pieces of art to feast your eyes on while taking a break in your book browsing exploits. The books that are offered range in all different kinds of genres and types, from graphic novels to literary journals.""",https://cdn.theculturetrip.com/wp-content/uploads/2016/03/photo_6_best-book-stores-in-the-mission.jpg,Bookstore,http://www.alleycatbookshop.com/,Culture Trip
John K. King Used & Rare Books,"901 W. Lafayette Blvd., Detroit, MI, USA","Detroit, MI",US,42.327534,-83.0592277,"With a lifelong passion for books, John K. King eventually had to find a space large enough to hold his collection, which necessitated a gigantic four-story former glove factory in downtown Detroit. Now containing over a million volumes, John K. King Used & Rare Books specializes in out-of-print, rare, and out-of-the-ordinary books, and even includes archival materials like ‘the books and papers of the auto barons (from Dodge to DeLorean)’",https://detroithistorical.org/sites/default/files/images/events/king_store_2.jpg,Bookstore,https://www.rarebooklink.com/,Culture Trip
Russian Hill Bookstore,"2234 Polk St, San Francisco, CA","San Francisco, CA",US,37.796708,-122.4240227,"""Russian Hill Bookstore is one of the last family-owned independent bookstores left in San Francisco, popular among local artists, writers, and other creatives. Located on the popular Polk Street, it has expanded since its opening in 1993 to incorporate an excellent selection of greeting cards, board games, toys, and other gifts, in addition to its thriving collection of new and used books. The store offers the option of buying or trading for your used books, so clear out your bookshelf and stop by.""",https://cdn4.gbot.me/photos/XN/iZ/1450737773/-Postcard_of_Russian_Hill_-20000000009335691-375x500.jpg,Bookstore,http://russianhillbookstore.com/,Culture Trip
Christopher’s Books,"400 18th St, San Francisco, CA","San Francisco, CA",US,37.7626784,-122.3988856,"""Christopher’s Books is a friendly neighborhood bookstore located in Potrero Hill, open since 1991. The store is small and charming, and while it does not have an extensive selection to choose from, it makes up for it with quality curation and more unique options. """,http://christophersbooks.com/images/chrisBooksBldg.jpg,Bookstore,http://christophersbooks.com/,Culture Trip
Bird & Beckett Books & Records,"653 Chenery St, San Francisco, CA","San Francisco, CA",US,37.734413,-122.4351437,"""Bird & Beckett Books & Records is a staple in the Glen Park neighborhood. The store goes beyond the standards of a quiet, neighborhood bookstore, engaging with the community with plenty of live music, poetry readings, open mic nights, and other events. With an emphasis on jazz, the store brings groovy vibes to the neighborhood. Stop by to enjoy the music and browse the great selection of books, always excellently curated to draw you to the stacks – but be warned, you may get lost in them.""",https://igx.4sqi.net/img/general/200x200/31534_8EaCqtqI7SpdjQad5xkZVYZt1tQRCpcRkznVugxvIh0.jpg,Bookstore,http://www.birdbeckett.com/,Culture Trip
Powell’s City of Books,"1005 W. Burnside St., Portland, OR, USA","Portland, OR",US,45.5233397,-122.6838315,"Powell’s Books has become one of the largest independent bookstores in the world, and it definitely remains one of the most famous bookstores in the United States. If you are looking for a book, there is a very high likelihood that you can find it here, along with a never-ending supply of passionate book-lovers who wander happily through the aisles looking for their next discovery.",,Bookstore,https://www.powells.com/,Culture Trip
Parnassus Books,"3900 Hillsboro Pike, Nashville, TN, USA","Nashville, TN",US,36.1055912,-86.8151379,"""After the last major bookstore closed in Nashville, author Ann Patchett took on the responsibility of opening one herself with partner Karen Hayes, seizing the opportunity to create, in place of the usual Borders-type monolith, a bookstore like those she frequented in her youth, where ‘the people who worked there remembered who you were and what you read, even if you were 10.’ """,https://static01.nyt.com/images/2016/12/11/travel/11PURSUITS1/11PURSUITS1-articleLarge.jpg?quality=75&auto=webp&disable=upscale,Bookstore,https://www.parnassusbooks.net/,Culture Trip
Prairie Lights,"15 S. Dubuque St., Iowa City, IA, USA","Iowa City, IA",US,41.6607199,-91.5354793,"""Located in a building that once housed a 1930s local literary society frequented by writers such as Carl Sandburg, Robert Frost, Sherwood Anderson, Langston Hughes, and E.E. cummings, Prairie Lights enjoys a particular literary pedigree not easily found elsewhere. It also is home to ‘Live from Prairie Lights’, a long running literary reading series presented live and then streamed over the Internet. Originally conceived by founder Jim Harris as a bookstore in which to find newer voices and established writers of fiction, being close to the home of the famous Iowa Writers’ Workshop at the University of Iowa""",https://pbs.twimg.com/profile_images/2731316052/2dbfea4217e1ccf7e2372077ae0c70be_400x400.jpeg,Bookstore,https://www.prairielights.com/,Culture Trip
Turnrow Book Co.,"304 Howard St, Greenwood, MS 38930","Greenwood, MS",US,33.5193216,-90.1845851,"""I’m not sure why you’d be going to Greenwood, Miss., except for a mad desire to see TurnRow Book Company. It’s one of the most beautiful bookstores I know, and the sheer unlikelihood of its presence makes a traveler feel she’s stumbled into an oasis in the Mississippi Delta.""",https://i.pinimg.com/280x280_RS/de/7c/31/de7c3112d46e7bc227701d7db94fc1db.jpg,Bookstore,https://turnrowbooks.com/,New York Times
Tattered Cover Book Store,"1628 16th Street Mall, Denver, CO, USA","Denver, CO",US,39.7531224,-105.0023333,"""Tattered Cover now has four branches in the metro area, and three satellite stores at Denver International Airport. The stores have hosted most of the major authors of the world, with community events nearly every night. The location in Denver’s historic Lower Downtown (‘LoDo’) district is an intimate and welcoming spot with comfy couches and armchairs, a large newsstand, and cafe.",https://www.tatteredcover.com/sites/tatteredcover.d7.indiebound.com/files/aspen_grove.jpg,Bookstore,https://www.tatteredcover.com/,Culture Trip
Bart’s Books,"302 W. Matilija St., Ojai, CA, USA","Ojai, CA",US,34.4486398,-119.2520589,"""What began as one book lover named Richard Bartinsdale selling books on the sidewalk using coffee cans in lieu of cash registers has turned into what is now claimed to be ‘the largest independently owned outdoor bookstore in the world,’ graced by the perennial sunshine of its Southern California location. While the expansive inventory has grown, including new books and even some rare first editions, the famous original ‘honour system’ lives on in bookcases along the street, where you can shop after closing time and just drop the corresponding number of coins in the coin box. With its pleasant reading areas and relaxed vibe, this is not only a must-see spot during a visit to Ojai but also a gathering spot for the locals of this artsy, nature-rich community.""",http://c8.alamy.com/comp/KH9XEA/the-worlds-greatest-outdoor-bookstore-barts-books-in-ojai-california-KH9XEA.jpg,Bookstore,http://www.bartsbooksojai.com/,Culture Trip
Books & Books,"65 Aragon Ave., Coral Gables, FL, USA","Coral Gables, FL",US,25.7505,-80.2621477,"""Founded by Mitchell Kaplan in 1982, Books & Books is located in a stunning 1927 Mediterranean-style building that is listed on the Coral Gables Register of Historic Places. The expansive South Florida bookshop, which enjoys original tile floors, a fireplace, beamed ceilings, dark-wood bookshelves, and an open-air courtyard, is not only a beautiful place to shop for books but also one of the largest independent booksellers in the state of Florida. While they see a continuous flow of writers at their reading series and even host live music in the palm-lined courtyard, their secret weapon appears to be their full-service cafe, a much-loved spot for a healthy lunch or a glass of wine with friends.""",http://booksandbooks.lightningbasehosted.com/wp-content/uploads/2016/10/Gables-Books-Books-Ladder-2-copy.jpg,Bookstore,https://booksandbooks.com/,Culture Trip
"The Doe Library in Berkeley, California","University of California, South Hall Rd, Berkeley, CA 94704","Berkeley, CA",US,37.8723786,-122.2623407,"Set on the UC Berkeley campus, the Doe Library—which sits adjacent to the Bancroft Library—features a Neoclassical-style building completed in 1911. Named after its benefactor, Charles Franklin Doe, the structure’s iconic columns and grand scale make it one of the most recognizable buildings on campus.",http://i2.wp.com/www.dailycal.org/assets/uploads/2015/02/IMG_2414-e1423255186483-900x580.jpg,Library,http://www.lib.berkeley.edu/libraries/doe-library,Curbed
Suzzallo and Allen Libraries,"4000 15th Ave NE, Seattle, WA 98195","Seattle, WA",US,47.6557702,-122.3100314,"Designed in the early 1920s by Seattle architects Carl F. Gould, Sr. and Charles H. Bebb, the Suzzallo Library boasts a facade made with sandstone, precast stone, terra-cotta, and brick. Reminiscent of a large European cathedral, the library’s Collegiate Gothic style makes it one of the best-known buildings on campus.

While the exterior is impressive, the 65-foot high and 250-foot long reading room is simply awe-inspiring. A vaulted ceiling with bright colors and gilded details is accented by oak bookcases and hard-carved friezes. Large leaded-glass windows let in natural light and long desks provide plenty of study room.",https://upload.wikimedia.org/wikipedia/commons/thumb/5/57/MK03235_University_of_Washington_Suzzallo_Library.jpg/220px-MK03235_University_of_Washington_Suzzallo_Library.jpg,Library,http://www.lib.washington.edu/suzzallo/,Curbed
State Law Library,"1007 E Grand Ave # 214, Des Moines, IA 50319","Des Moines, IA",US,41.5911805,-93.6062534,"This library in Des Moines, Iowa, provides Iowa lawmakers, government employees, the Iowa legal community, and the general public access to 105,000 volumes of legal treatises on state, federal, regulatory, and case law.

Originally created thanks to an act of Congress in 1838, the law library’s collection moved from location to location until 1886 when it settled on the second floor of the State Capitol Building in Des Moines. The library’s grand hall is intricately decorated in the Victorian style, boasting painted ceilings, stained glass inserts, and book-lined alcoves forty-five feet in height",https://hips.hearstapps.com/hbu.h-cdn.co/assets/16/29/2048x1024/landscape-1468877470-index-iowa-library.jpg?resize=480:*,Library,https://www.statelibraryofiowa.org/services/collections/law-library,Curbed
Seattle Central Library,"1000 4th Ave, Seattle, WA 98104","Seattle, WA",US,47.6067006,-122.3346896,"""The Seattle Public Library's Central Library is the flagship library of The Seattle Public Library system. The 11-story glass and steel building in downtown Seattle, Washington was opened to the public on Sunday, May 23, 2004""",https://upload.wikimedia.org/wikipedia/commons/7/7f/2009-0604-19-SeattleCentralLibrary.jpg,Library,https://www.spl.org/hours-and-locations/central-library,Curbed
"Sawyer Library in Williamstown, Massachusetts","Stetson Hall, 26 Hopkins Hall Dr, Williamstown, MA 01267","Williamstown, MA",US,42.7135533,-73.2042445,"Williams College demolished a 1970s-era library building to make room for the new Sawyer Library, but the architects of the project—Bohlin Cywinski Jackson—also had to incorporate the classical styling of the historic Stetson Hall, built in 1921.

The result cost $66.8 million and is a blend of old and new, with a modern five-story facility housing the new Sawyer Library, the Chapin Library of Rare Books, and the Center for Education Technology. The new section features a central atrium that prioritizes natural light and offers beautiful views of campus.",https://i0.wp.com/www10.aeccafe.com/blogs/arch-showcase/files/2016/04/Williams-Sawyer-Library-1.jpg,Library,https://library.williams.edu/,Curbed
San Francisco Public Library,"100 Larkin St,  94102","San Francisco, CA",US,37.7790819,-122.4179848,"The Main Library of the San Francisco Public Library system opened at its current site in 1996 and features seven floors with two million items. The building was designed by James Ingo Freed of Pei Cobb Freed & Partners (New York) and Cathy Simon of Simon Martin-Vegue Winkelstein & Moris (San Francisco) and represents the largest public/private partnership in the history of San Francisco at a cost of more than $122 million.

The most recognizable feature of the library is a dramatic skylight in the building’s five-story central atrium. Bridges connect the floors across lightwells, and the design includes a grand staircase that rises four stories.",http://sfyouthworks.org/wp-content/uploads/2012/09/34120917.jpg,Library,https://sfpl.org/index.php?pg=0100000101,Curbed
Providence Athenaeum,"251 Benefit St, Providence, RI 02903","Providence, RI",US,41.825788,-71.4085667,"The Providence Athenaeum was founded as ""The Athenaeum"" in 1836 as an independent, member-supported library open to the public. Its progenitors were two earlier libraries: The Providence Library Company, founded in 1753, and the Providence Athenaeum, founded in 1831.",https://assets.atlasobscura.com/media/W1siZiIsInVwbG9hZHMvcGxhY2VfaW1hZ2VzL2I3ODI2MGQ5YjYxZTFjYzlkZF9Qcm92aWRlbmNlX0F0aGVuYWV1bV9pbnRlcmlvcl8yMDEzLmpwZyJdLFsicCIsInRodW1iIiwieDM5MD4iXSxbInAiLCJjb252ZXJ0IiwiLXF1YWxpdHkgODEgLWF1dG8tb3JpZW50Il1d/Providence_Athenaeum_interior_2013.jpg,Library,https://providenceathenaeum.org/,Business Insider
Phillips Exeter Academy Library,"21 Elm St, Exeter, NH 03833","Exeter, NH",US,42.97882,-70.94957,"Perhaps no space better exemplifies Louis Kahn's masterful exploitation of mass, scale, surface, and emotion than his Phillips Exeter Academy Library. Hiding behind a regimented brick façade is the building's enormous, seventy-foot-tall atrium, lit by upper clerestories and encircled by book-filled balconies. These are framed by gigantic concrete walls, cut with massive circles, which Kahn called ""concrete donuts,"" shielding the library's more than 250,000 books from daylight. The intense shift between the unassuming exterior and breathtaking interior is indicative of Kahn's ability to provide an unexpected visceral experience. Climb the corner stairs to the upper floors and be mesmerised by the changing atrium views and those of the historic campus.",,Library,https://www.exeter.edu/academics/library,Dezeen
New York Public Library,"476 5th Ave, New York, NY 10018","New York, NY",US,40.75312,-74.05264,"Such a beautiful building. You would think you are in Europe and it was built 500 years ago. Oh, and a must visit for Ghostbusters fans.",https://fastly.4sqi.net/img/general/1116x400/19403364_cUJdUzXUYTEjHp4Ds8AEc1svpAKrriwXxUgHdIznVhc.jpg,Library,https://www.nypl.org/,Experience
Library of Congress,"101 Independence Ave SE, Washington, DC 20540","Washington, DC",US,38.888684,-77.0069077,"No round up of the most stunning libraries in the United States would be complete without the Library of Congress in Washington D.C. The largest library in the world, the Library of Congress is housed in three buildings on Capitol Hill.",https://www.loc.gov/portals/static/visit/tours/images/student-tour.jpg,Library,https://www.loc.gov/,Curbed
Lawrence Public Library,"707 Vermont St,  66044","Lawrence, KS",US,38.9708174,-95.239817,"The new design—from the firm Gould Evans—uses glass and terra-cotta to create a welcoming space that’s bright and airy. A wraparound reading room was a major addition, and the renovation also included new communal meeting spaces, a music recording studio, and teen gaming zones. Outside the library, locals can enjoy a butterfly garden in the summer and an ice skating rink in the winter.",https://www.arch2o.com/wp-content/uploads/2017/11/Arch2O-Lawrence-Public-Library-Gould-Evans-017-copy.jpg,Library,https://lplks.org/,Curbed
Homer City Library,"500 Hazel Ave, Homer, AK 99603","Homer, AK",US,59.6438501,-151.5330846,"The Homer Public Library won the 2007 Honor Award, AIA Alaska Chapter, for its modern design and use of local materials.",https://amp.businessinsider.com/images/579bb64add0895ce188b49b0-1920-1440.jpg,Library,https://www.cityofhomer-ak.gov/library,Business Insider
Hillary Rodham Clinton Children's Library & Learning Center,"4800 W 10th St, Little Rock, AR 72204","Little Rock, AR",US,34.7435736,-92.3302518,earned a 2015 AIA/ALA Library Building Award for its glass facade and low carbon footprint.,https://amp.businessinsider.com/images/579bb64add0895ce188b49b2-1334-1001.jpg,Library,https://cals.org/,Business Insider
Hawaii State Public Library,"478 S King St, Honolulu, HI 96813","Honolulu, HI",US,21.30581,-157.8597944,originally funded by Andrew Carnegie and is still expectedly tropical.,https://amp.businessinsider.com/images/579bb64add0895ce188b49b9-1536-1152.jpg,Library,https://www.librarieshawaii.org/,Business Insider
"Harold Washington Library Center, Chicago Public Library","400 S State St, Chicago, IL 60605","Chicago, IL",US,41.8762968,-87.6304166,"As the Chicago Public Library’s main branch, the Harold Washington Library Center broke ground in 1988 after a competition to design a new central library in the South Loop. An 11-member citizen jury selected the design by Thomas Beeby from Hammond, Beeby & Babka, Inc., and the building opened in 1991.",https://americanlibrariesmagazine.org/wp-content/uploads/2017/05/btn1.jpg,Library,https://www.chipublib.org/locations/34/,Curbed
"Geisel Library in San Diego, California","9500 Gilman Dr, La Jolla, CA 92093","La Jolla, CA",US,32.8811507,-117.2396384,"Located at UC San Diego, the Geisel Library was designed in the late 1960s by William Pereira as an eight-story, Brutalist concrete structure. It sits at the head of a canyon near the center of the campus, and the lower two stories form a pedestal for the six-story, stepped tower.",https://upload.wikimedia.org/wikipedia/commons/thumb/a/aa/Geisel-Library.jpg/250px-Geisel-Library.jpg,Library,http://libraries.ucsd.edu,Curbed
Fisher Fine Arts Library,"220 S 34th St, Philadelphia, PA 19104","Philadelphia, PA",US,39.9516107,-75.1949582,"""Designed by American architect Frank Furness in 1888, the library at the University of Pennsylvania rejected the popular marble or granite designs of the late nineteenth century in favor of fiery red brick. The building contains a mix of towers, chimneys, and sky-lighted rooms that mimic the factories of downtown Philadelphia.""",http://www.library.upenn.edu/sites/default/files/2017-09/apse.jpg,Library,http://www.library.upenn.edu/finearts,Curbed
Boswell Book Company,"2559 N Downer Ave, Milwaukee, WI 53211","Milwaukee, WI",US,43.0651811,-87.8804485,,https://www.visitmilwaukee.org/remote.jpg.ashx?mode=crop&width=1920&height=1080&scale=both&urlb64=aHR0cDovL3Jlcy5jbG91ZGluYXJ5LmNvbS9zaW1wbGV2aWV3L2ltYWdlL3VwbG9hZC9jX2ZpdCx3XzE5MjAsaF8xMDgwL2NybS9taWx3YXVrZWUvVk1fQm9zd2VsbEJvb2tzX0ludGVyaW9yX01BSU5JTUcwLThmZGEyMTY1NTA1NmEzNl84ZmRhMjI2MS01MDU2LWEzNmYtMjM1M2QyNTA1YmMzNjNhNi5qcGc&hmac=G7L_ZRXwOR4,Bookstore,https://www.boswellbooks.com/opening-letter-0,New York Times
Malaprop's Bookstore/Café,"55 Haywood St, Asheville, NC 28801","Asheville, NC",US,35.5961409,-82.5570433,"the heart and soul of Asheville, N.C., when Asheville was a sleepy little hippie town, and it’s still its heart and soul now that the city is cool and overcrowded, a position Malaprop’s maintained by being unabashedly true to itself.",https://s26162.pcdn.co/wp-content/uploads/2016/11/malaprop.jpg,Bookstore,https://www.malaprops.com/,New York Times
An Unlikely Story,"111 South St, Plainville, MA 02762","Plainville, MA",US,42.0042266,-71.3376491,"On the site of the historic Falk's Market, Julie and Jeff Kinney created a cornerstone in downtown Plainville with an independent bookstore, a café, and an event space. An Unlikely Story Bookstore and Café is a community gathering place for meeting authors, eating breakfast or lunch, or relaxing with a new book and a beer or glass of wine. Directly upstairs to An Unlikely Story is the Second Story. The Second Story hosts community events including readings, jewelry workshops, yoga, karaoke, wine tastings, game nights for families, and is also available for private functions.",https://www.anunlikelystory.com/sites/anunlikelystory.com/files/an-unlikely-story-bookstore-plainville-ma.jpg,Bookstore,http://www.anunlikelystory.com,New York Times
McLean and Eakin,"307 E Lake St, Petoskey, MI 49770","Petoskey, MI",US,45.375061,-84.9589297,proves Northern Michigan has a lot more to offer than cherries and apples,https://s3-media1.fl.yelpcdn.com/bphoto/jqatS0-VYsi0mhXnaGX4Aw/348s.jpg,Bookstore,https://www.mcleanandeakin.com/,New York Times
Book Passage,"51 Tamal Vista Blvd, Corte Madera, CA 94925","Corte Madera, CA",US,37.8645546,-122.5252646,"No bookstore ever made a strip mall look better than Book Passage in Corte Madera, Calif. Every author you could hope to see comes to read at Book Passage.",https://pics.librarything.com/picsizes/a1/d9/a1d9f6678ee09ba636c584d41774259416c6743.jpg,Bookstore,,New York Times
Explore Booksellers ,"221 E Main St, Aspen, CO 81611","Aspen, CO",US,39.1907955,-106.8233186,"And then there’s Explore Booksellers in Aspen, Colo., a town that’s gotten so expensive that the bookstore would have to sell Chanel bags alongside Michael Chabon novels in order to make the rent, so a group of people got together and bought it so that the town could have a bookstore",https://encrypted-tbn0.gstatic.com/images?q=tbn:ANd9GcTRvsr-V5mS0ta1gASgBEfbHRYU7YkW6PEttRVLruIoBEGwNHXK,Bookstore,https://www.explorebooksellers.com/,New York Times
Harward Bookstore,"1256 Massachusetts Ave, Cambridge, MA 02138","Cambridge, MA ",US,42.37255,-71.1184747,"From Harvard Book Store: ""Harvard Book Store is a unique and special place for readers—a locally owned, independently run Cambridge landmark since 1932. We are well known for our award-winning author event series; an extraordinary selection of thoughtfully curated new, used, and remaindered books; and a history of innovation.""",http://wordpress-imageuploads-prod.s3.amazonaws.com/wp-content/uploads/2015/09/IMG_0836.jpg,Bookstore,http://www.harvard.com/index.php?/,New York Times
Crested Butte Library,"507 Maroon Ave, Crested Butte, CO 81224","Crested Butte, CO",US,38.8702845,-106.9856878,"Made of sandstone, the Crested Butte historical library was built in 1883 and was originally used as a two-room schoolhouse.",https://amp.businessinsider.com/images/579bb64add0895ce188b49b4-1920-1440.jpg,Library,https://www.gunnisoncountylibraries.org/crested-butte-library/,Business Insider
Cook William W Legal Research Library,"801 Monroe St, Ann Arbor, MI 48109","Ann Arbor, MI",US,42.2737013,-83.7420261,"The grand building has large spires, stained glass windows, and metal work by the best metal worker of the time, Samuel Yellin. But the most stunning aspect of the library is likely its huge reading room, where large desks, wooden paneling, and elegant chandeliers create a peaceful and elegant hall.",https://lh5.googleusercontent.com/p/AF1QipN7G0kUHbpEReT2zsXjg5HTUQgDSe3LNGRRbzeh=w240-h160-k-no,Library,http://www.law.umich.edu/library/home/Pages/default.aspx,Curbed
Central Boston Public Library,"700 Boylston St, Boston, MA 02116","Boston, MA",US,42.3494163,-71.0810172,"""The crown jewel of the Boston Public Library system, the Central Library is made up of two buildings by Charles Follen McKim and Philip Johnson. The McKim Building in Copley Square was constructed in 1895 and houses a massive reading room—called Bates Hall—that’s full of green lamps and classic wooden tables.""",https://wgbh.brightspotcdn.com/dims4/default/2522535/2147483647/strip/true/crop/640x349+0+55/resize/990x540!/quality/90/?url=http%3A%2F%2Fcdn-news.wgbh.org%2Fs3fs-public%2F640px-Boston_Public_Library_Reading_Room.jpg,Library,https://www.bpl.org/,Curbed
Carnegie Library,"4400 Forbes Ave, Pittsburgh, PA 15213","Pittsburgh, PA",US,40.44362,-79.95073,"""Carnegie Library of Pittsburgh empowers people to transform their lives through life-long learning, digital literacy and connections to others.",,Library,https://www.carnegielibrary.org/,Experience
Billings Public Library,"510 N Broadway, Billings, MT 59101","Billings, MT",US,45.7858608,-108.5126307,"Recently completed in 2015, the architecture team at Will Bruder Architects designed this building to be a sustainable, transparent, and dynamic gathering space for the community. Sitting along Billings’ busy 6th Avenue, the light-filled library cost $20 million to build.

According to the architect, “The library’s architecture is thus a hybrid of both the handsome and beautifully restored 19th century main train depot on Montana Street and the powerful block long warehouse buildings of brick masonry and metal that serve to shelter the transfer of resources at this point of commerce.”",http://willbruderarchitects.com/wp-content/uploads/2015/06/4_EXT-DAY.1.jpg,Library,https://billingslibrary.org/,Curbed
Beinecke Rare Book & Manuscript Library,"121 Wall St, New Haven, CT 06511","New Haven, CT",US,41.3115804,-72.929449,"One of the world’s largest libraries devoted entirely to rare books and manuscripts, the Beinecke Library sits on the Yale University campus. The building—made of Vermont marble and granite, bronze and glass—was designed by Gordon Bunshaft, of Skidmore, Owings and Merrill. Work began on the building in 1960 and was completed in 1963.",https://upload.wikimedia.org/wikipedia/commons/2/2c/Beinecke-Rare-Book-Manuscript-Library-Interior-Yale-University-New-Haven-Connecticut-Apr-2014-a.jpg,Library,https://beinecke.library.yale.edu/,Curbed
Arabian Library,"10215 E McDowell Mountain Ranch Rd, Scottsdale, AZ 85255","Scottsdale, AZ",US,33.6276703,-111.8655795,"Designed by richärd+bauer architects and opened in 2007, this modern library pays homage to Arizona’s desert environment. The sloping angle of the roof line and the earthen and stone roof echo the stone walls of the state’s desert slot canyons. The library’s exterior—made up of weather steel plates—also mimic the color of the terra-cotta walls of stone.",https://images.adsttc.com/media/images/5014/227b/28ba/0d3b/4500/134a/newsletter/stringio.jpg?1414028125,Library,http://www.scottsdalelibrary.org/,Curbed
 The Gulf Gate Library,"7112 Curtiss Ave, Sarasota, FL 34231","Sarasota, FL",US,27.253134,",-82.501906","The Gulf Gate Library in Sarasota opened less than a year ago but has already been recognized by the AIA Florida chapter for its flexible meeting spaces and warm, inviting design.",https://amp.businessinsider.com/images/579bb64add0895ce188b49b7-960-720.jpg,Library,https://www.scgov.net/government/departments/libraries,Business Insider
Cedar Rapids Public Library,"450 5th Ave SE, Cedar Rapids, IA 52401","Cedar Rapids, IA",US,41.9774883,-91.6649015,The Cedar Rapids Public Library was a recipient of the 2015 AIA/ALA Library Building Award for its futuristic exterior design.,https://amp.businessinsider.com/images/579bb64add0895ce188b49bd-1920-1174.jpg,Library,http://www.crlibrary.org/,Business Insider
Louisville Free Public Library,"301 York St, Louisville, KY 40203","Louisville, KY",US,38.2447267,-85.7599928,"The Louisville Free Public Library is the largest public library system in the U.S. state of Kentucky. Officially opened in 1905, the library's main branch is sited at Fourth and York streets, south of Broadway in downtown Louisville.",https://amp.businessinsider.com/images/579bb64add0895ce188b49be-960-640.jpg,Library,http://www.lfpl.org/,Business Insider
The Portland Public Library,"5 Monument Way, Portland, ME 04101",,US,43.6576847,70.2613354,"The Portland Public Library was once a cold and uninviting building, but a new facade installed in 2012 earned it a AIA Maine Honor Award and an AIA New England Design Award.",https://amp.businessinsider.com/images/579bb64add0895ce188b49c0-1920-1440.jpg,Library,https://www.portlandlibrary.com/,Business Insider
Kansas City Public Library,"14 W 10th St, Kansas City, MO 64105","Kansas City, MO",US,39.0594825,-94.5878656,"The Kansas City Public Library features a towering row of famous books on its facade, including ""Catch-22"" and Plato's ""Republic.""",https://amp.businessinsider.com/images/579bb64add0895ce188b49c6-1920-882.jpg,Library,https://www.kclibrary.org/library-locations/central-library,Business Insider
Prim Library,"291 Country Club Dr, Incline Village, NV 89451",,US,39.2432021,-119.9414104,"The Prim Library at Sierra Nevada College, in the town of Incline Village, delivers a rustic feel in the heart of the forest.",https://amp.businessinsider.com/images/579bb64add0895ce188b49c9-750-447.jpg,Library,https://www.sierranevada.edu/academics/prim-library/,Business Insider
"Special Collections and University Archives, Rutgers University Libraries",,,US,,,"At Rutgers University, in New Brunswick, the library was modeled after a 4th-century Roman church and is spread across three levels.",https://amp.businessinsider.com/images/579bb64add0895ce188b49cb-1920-733.jpg,Library,,Business Insider
William Oxley Thompson Library,"1858 Neil Ave, Columbus, OH 43210","Columbus, OH",US,39.9991926,-83.0170512,"Located in Columbus, the palatial William Oxley Thompson Library won the 2011 AIA/ALA Library Building Award.",https://amp.businessinsider.com/images/579bb64add0895ce188b49cf-1920-1440.jpg,Library,https://library.osu.edu/locations/thompson,Business Insider
Metropolitan Library System - Northwest Library,"5600 NW 122nd St, Oklahoma City, OK 73142",,US,35.594165,-97.6200967,"In Oklahoma City the Northwest Library was designed to let in plenty of daylight while staying durable, since it features rooms for storm safety.",https://amp.businessinsider.com/images/579bb64add0895ce188b49d0-1920-1172.jpg,Library,http://www.metrolibrary.org/?utm_source=GMBlisting&utm_medium=organic,Business Insider
,,,US,,,The Free Library of Philadelphia opened in 1894 and has retained its sense of elegance and enormity for more than century.,,Library,,Business Insider
Fleet Library at Rhode Island School of Design,"2437, 15 Westminster St, Providence, RI 02903","Providence, RI",US,41.8253435,-71.4116487,Rhode Island School of Design's Fleet Library relies on a unique mixture of old and new to create a welcoming place to study or read.,https://amp.businessinsider.com/images/579bb64add0895ce188b49d3-750-500.jpg,Library,https://library.risd.edu/,Business Insider
Boston Athenaeum,"10 ½ Beacon St, Boston, MA 02108","Boston, MA",US,42.357945,-71.0642186,"The Boston Athenæum is one of the oldest independent libraries in the United States. It is also one of a number of membership libraries, for which patrons pay a yearly subscription fee to use Athenæum services. The institution was founded in 1807 by the Anthology Club of Boston, Massachusetts",https://cdn10.bostonmagazine.com/wp-content/uploads/sites/2/2016/09/BostonAthenaeum-openhouse.jpg,Library,https://www.bostonathenaeum.org/,Business Insider
"Historical Society of Pennsylvania Library, Philadelphia, 2011","1300 Locust St, Philadelphia, PA 19107","Philadelphia, PA ",US,39.947787,-75.1649207,Center for research & exhibitions dedicated to the history of Philadelphia & the United States.,https://hsp.org/sites/default/files/styles/slideshow/public/styles/slideshow/public/readingroomsignature.jpg,Library,https://hsp.org/,Business Insider
St Helena Library,"6355 Jonathan Francis Senior Rd, St Helena Island, SC 29920","St Helena Island, SC",US,32.3879843,-80.5735319,"In St. Helena Island, the St. Helena Branch Library creates a cozy environment with lattice-enclosed reading spaces inside, and relaxing open spaces outside.",https://www.world-architects.com/images/CmsPageElementImage/32/11/34/5903c894dfb04a71b07f346367d6201c/5903c894dfb04a71b07f346367d6201c.f5fb7444.jpg,Library,https://www.beaufortcountylibrary.org/st-helena-branch,Business Insider
Minneapolis Central Library,"300 Nicollet Mall, Minneapolis, MN 55401","Minneapolis, MN",US,44.9802568,-93.2722223,,http://pcpa.imgix.net/pcpa_assets/2013/07/hennepin-county-library-night.jpg?w=1600&h=1100,Library,https://www.hclib.org/minneapoliscentral,Business Insider
Grolier Book Club,,,US,,,,,Library,http://www.grolierpoetrybookshop.org/,
The Bellevue Library,"720 Baugh Rd, Nashville, TN 37221","Nashville, TN",US,36.0696187,-86.9390925,The Bellevue Library in Nashville won the 2015 AIA Tennessee Merit Award for its flexible design that caters to large groups or intimate gatherings.,https://library.nashville.org/sites/default/files/styles/content_scale/public/field/branch/image/splashimage-blbranch_0.jpg?itok=6QmGOELi,Library,https://library.nashville.org/,Business Insider
McAllen Public Library,"4001 N 23rd St, McAllen, TX 78504","McAllen, TX",US,26.2416408,-98.2445204,"Formerly a Walmart, the McAllen Public Library gives kids ample room to roam around and find secret hiding spots to read.",https://manana.blob.core.windows.net.optimalcdn.com/images/2015/07/18/amenidades-focus-0-0-628-524.jpg,Library,http://www.mcallenlibrary.net/,Business Insider
Salt Lake City Public Library,"210 E 400 S, Salt Lake City, UT 84111","Salt Lake City, UT",US,40.7525573,-111.9484824,"Built in 2003, Salt Lake City's Main Library could pass as a sunlit shopping mall, were it not for the many shelves of books.",https://upload.wikimedia.org/wikipedia/en/thumb/a/ab/Salt_Lake_City_Public_Library_Intern.jpg/220px-Salt_Lake_City_Public_Library_Intern.jpg,Library,https://www.slcpl.org/,Business Insider
Slover Library,"235 E Plume St, Norfolk, VA 23510",,US,36.846621,-76.2926215,,https://www.norfolkpubliclibrary.org/Home/ShowImage?id=975&t=635545967695470000,Library,http://www.sloverlibrary.com/,Business Insider
Sublette County Public Library,"155 S Tyler Ave, Pinedale, WY 82941",,US,42.8646674,-109.8634652,,http://www.visitpinedale.org/cache/made/images/content/pinedale/public-library/library-3_760_507_76auto.jpg,Library,http://sublettecountylibrary.org/,Business Insider
Ulises,"31 E Columbia Ave
",,,,,,,,http://ulises.us/,
"
Taschen","107 Greene St, New York, NY 10012","New York, NY",US,40.7246706,-74.0020441,German art-book publisher's bright boutique & gallery designed by Phillipe Starck,https://www.taschen.com/media/images/960/store_ny_001_1509221413_id_163475.jpg,Bookstore,https://www.google.com/search?q=tashen+nyc&oq=tashen+nyc&aqs=chrome..69i57j0l4.1953j1j1&sourceid=chrome&ie=UTF-8,Experience
Rizzoli Bookstore,"1133 Broadway, New York, NY 10010","New York, NY",US,40.7435735,-73.9913696,"When you enter the newly minted Rizzoli’s on Broadway, it feels more like the 42 nd Street library than a bookstore. With its high ceilings and neatly-organized bookshelves, it offers a variety of subject headings: literature, photography, furniture, architecture, gardening. Upholstered chairs dot the bookstore, primed for comfort and reading.",https://www.rizzolibookstore.com/sites/rizzolibookstore.com/files/Rizzoli-02.jpg?1446131237,Bookstore,https://www.rizzolibookstore.com/,Experience
Albertine,"972 5th Ave (Between 78th & 79th Streets), New York, NY","New York, NY",US,40.7765759,-73.9659559,Gorgeous bookstore with a wonderful selection of books in French and French books in English translation. Awesome cultural events in the evening.,https://blog.fschumacher.com/wp-content/uploads/2015/11/albertine.jpeg,Bookstore,https://www.albertine.com/,Experience
Three Lives & Company,"154 W 10th St, New York, NY 10014","New York, NY",US,40.734355,-74.0036767,"In a city full of fantastic independent bookstores, this one has the most character. Also, in some kind of superhuman feat, the staff almost always have read everything in stock.",https://www.threelives.com/art/winterstore.jpg,Bookstore,http://www.threelives.com/,Experience
Books are Magic,"225 Smith St, Brooklyn, NY 11231","New York, NY",US,40.6839955,-73.9942646,Beautiful store. Well curated,https://www.booksaremagic.net/,Bookstore,https://www.booksaremagic.net/,Experience
192 Books,"192 10th Ave, New York, NY 10011","New York, NY",US,40.7466065,-74.0069561,"Inside, the quiet Chelsea shop sells a curated but varied selection of books on literary fiction, film, photography, history, and even science—which you can browse through while watching people-watching through the wide windows. ",https://www.sara-novic.com/uploads/2/1/1/6/21165110/7955826_orig.jpg,Bookstore,http://www.192books.com/,Experience
The Corner Bookstore,"1313 Madison Ave, New York, NY 10128","New York, NY",US,40.7851492,-73.957692,"New York City, land of skyrocketing rents and ubiquitous nail salons, has some of the best tiny bookstores in the world",http://cornerbookstorenyc.com/wp-content/uploads/2011/12/Storefront-768x515.jpg,Bookstore,http://cornerbookstorenyc.com/,Experience
Provincetown Bookshop,"246 Commercial St, Provincetown, MA 02657","Provincetown, MA",US,42.0506077,70.1901375,That essential last stop before hitting the beach. ,https://ghadaevoradesign.files.wordpress.com/2012/07/img_3146.jpg,Bookstore,"https://www.facebook.com › Places › Provincetown, Massachusetts › Bookstore",New York Times
Birchbark Books & Native Arts,"2115 W 21st St, Minneapolis, MN 55405","Minneapolis, MN",,44.9616189,-93.310184,"The novelist Louise Erdrich owns the tiny Birchbark Books in Minneapolis, a store that uses a chunk of its limited space to display an elaborately carved confessional box. You’ll wish every bookstore had one.",https://birchbarkbooks.com/Images/WebPages/HomePage/storefront.jpg,Bookstore,https://birchbarkbooks.com/,New York Times
Newtonville Books,"10 Langley Rd, Newton, MA 02459",,,42.3312494,-71.1960316,"Independent bookstore hosting readings & release parties, plus events for young readers.",https://www.newtonvillebooks.com/cms/wp-content/uploads/2016/11/112016_winter_front_store.jpg,Bookstore,https://www.newtonvillebooks.com/cms/,New York Times